H1 CPF  1  HTS 2022 12 19 12  8531 larets           NONE
H2  0304206 5557    27944 2022 12 19  0  0  0 2022 12 24  0  0  0   180 1 1  0 0 0
H5  0.0560 
H9 
10 0 59933  59400.00000  0    2564078.479   -2748790.560   -5996550.285
10 0 59933  59580.00000  0    1479061.381   -2165806.032   -6573577.084
10 0 59933  59760.00000  0     357513.256   -1475899.350   -6912259.268
10 0 59933  59940.00000  0    -757700.478    -703533.401   -7000430.907
10 0 59933  60120.00000  0   -1824659.271     122788.937   -6834863.153
10 0 59933  60300.00000  0   -2803918.652     971545.152   -6421375.127
10 0 59933  60480.00000  0   -3659933.561    1809356.118   -5774662.920
10 0 59933  60660.00000  0   -4362339.812    2602262.482   -4917849.606
10 0 59933  60840.00000  0   -4887058.250    3317081.164   -3881745.350
10 0 59933  61020.00000  0   -5217170.585    3922790.875   -2703818.373
10 0 59933  61200.00000  0   -5343527.375    4391890.188   -1426898.928
10 0 59933  61380.00000  0   -5265051.636    4701662.332     -97643.756
10 0 59933  61560.00000  0   -4988710.910    4835278.788    1235188.064
10 0 59933  61740.00000  0   -4529144.196    4782673.261    2522578.187
10 0 59933  61920.00000  0   -3907954.671    4541130.868    3717120.084
10 0 59933  62100.00000  0   -3152706.653    4115561.923    4774825.647
10 0 59933  62280.00000  0   -2295686.090    3518445.355    5656787.798
10 0 59933  62460.00000  0   -1372487.045    2769445.753    6330629.541
10 0 59933  62640.00000  0    -420497.159    1894725.619    6771681.310
10 0 59933  62820.00000  0     522640.162     925991.237    6963853.651
10 0 59933  63000.00000  0    1420527.604    -100686.097    6900194.624
10 0 59933  63180.00000  0    2239426.792   -1146230.948    6583121.141
10 0 59933  63360.00000  0    2949533.723   -2170063.732    6024324.463
10 0 59933  63540.00000  0    3526077.481   -3131689.067    5244350.086
10 0 59933  63720.00000  0    3950202.421   -3992316.354    4271858.163
10 0 59933  63900.00000  0    4209601.238   -4716450.233    3142582.586
10 0 59933  64080.00000  0    4298871.929   -5273383.333    1898014.820
10 0 59933  64260.00000  0    4219580.664   -5638519.079     583856.592
10 0 59933  64440.00000  0    3980025.506   -5794455.741    -751696.954
10 0 59933  64620.00000  0    3594717.029   -5731779.696   -2059768.934
10 0 59933  64800.00000  0    3083600.417   -5449526.068   -3292630.548
10 0 59933  64980.00000  0    2471065.431   -4955286.361   -4405462.909
10 0 59933  65160.00000  0    1784796.829   -4264964.927   -5357975.982
10 0 59933  65340.00000  0    1054532.822   -3402207.702   -6115820.120
10 0 59933  65520.00000  0     310794.049   -2397544.746   -6651753.586
10 0 59933  65700.00000  0    -416367.429   -1287287.200   -6946545.123
10 0 59933  65880.00000  0   -1098548.509    -112219.974   -6989597.685
10 0 59933  66060.00000  0   -1710069.314    1083863.660   -6779290.669
10 0 59933  66240.00000  0   -2228913.925    2255744.112   -6323040.564
10 0 59933  66420.00000  0   -2637510.308    3358436.366   -5637082.518
10 0 59933  66600.00000  0   -2923331.322    4348889.672   -4745968.994
10 0 59933  66780.00000  0   -3079295.992    5187674.308   -3681777.230
10 0 59933  66960.00000  0   -3103948.432    5840585.988   -2483027.824
10 0 59933  67140.00000  0   -3001401.972    6280098.127   -1193344.319
10 0 59933  67320.00000  0   -2781044.685    6486592.997     140118.998
10 0 59933  67500.00000  0   -2457014.875    6449295.050    1468423.110
10 0 59933  67680.00000  0   -2047463.166    6166848.253    2742702.316
10 0 59933  67860.00000  0   -1573631.982    5647480.586    3916032.898
10 0 59933  68040.00000  0   -1058814.096    4908760.618    4945216.819
10 0 59933  68220.00000  0    -527242.471    3976960.271    5792410.843
10 0 59933  68400.00000  0      -2966.795    2886058.019    6426527.352
10 0 59933  68580.00000  0     491221.305    1676437.269    6824361.246
10 0 59933  68760.00000  0     934770.649     393340.659    6971411.129
10 0 59933  68940.00000  0    1310220.562    -914855.454    6862378.111
10 0 59933  69120.00000  0    1603887.514   -2198483.529    6501341.102
10 0 59933  69300.00000  0    1806366.307   -3408488.024    5901603.825
10 0 59933  69480.00000  0    1912828.721   -4498323.000    5085214.103
10 0 59933  69660.00000  0    1923110.728   -5425770.339    4082166.489
10 0 59933  69840.00000  0    1841590.510   -6154615.967    2929313.355
10 0 59933  70020.00000  0    1676856.345   -6656110.527    1669003.810
10 0 59933  70200.00000  0    1441182.124   -6910139.727     347506.055
10 0 59933  70380.00000  0    1149836.193   -6906054.737    -986728.175
10 0 59933  70560.00000  0     820253.880   -6643110.905   -2284892.324
10 0 59933  70740.00000  0     471122.496   -6130481.536   -3499650.517
10 0 59933  70920.00000  0     121434.527   -5386869.614   -4586875.318
10 0 59933  71100.00000  0    -210447.004   -4439745.784   -5507232.392
10 0 59933  71280.00000  0    -507665.687   -3324261.365   -6227552.048
10 0 59933  71460.00000  0    -755650.689   -2081895.976   -6721952.794
10 0 59933  71640.00000  0    -942767.902    -758901.117   -6972693.808
10 0 59933  71820.00000  0   -1060822.063     595400.169   -6970748.910
10 0 59933  72000.00000  0   -1105394.073    1930404.909   -6716098.776
10 0 59933  72180.00000  0   -1076005.187    3196063.234   -6217743.425
10 0 59933  72360.00000  0    -976103.371    4344711.499   -5493436.041
10 0 59933  72540.00000  0    -812870.036    5332856.672   -4569128.950
10 0 59933  72720.00000  0    -596852.017    6122852.153   -3478129.527
10 0 59933  72900.00000  0    -341428.612    6684396.162   -2259971.359
10 0 59933  73080.00000  0     -62131.363    6995781.936    -959026.468
10 0 59933  73260.00000  0     224154.473    7044831.578     377104.494
10 0 59933  73440.00000  0     500070.742    6829451.874    1699365.639
10 0 59933  73620.00000  0     748700.483    6357766.488    2959106.947
10 0 59933  73800.00000  0     954461.276    5647810.886    4109938.065
10 0 59933  73980.00000  0    1103937.130    4726813.754    5109493.092
10 0 59933  74160.00000  0    1186600.841    3630088.555    5921031.995
10 0 59933  74340.00000  0    1195389.923    2399604.293    6514790.563
10 0 59933  74520.00000  0    1127111.272    1082318.954    6869054.771
10 0 59933  74700.00000  0     982656.236    -271660.748    6970925.879
10 0 59933  74880.00000  0     767019.779   -1611011.622    6816762.206
10 0 59933  75060.00000  0     489121.601   -2885157.988    6412298.163
10 0 59933  75240.00000  0     161434.711   -4046201.990    5772429.618
10 0 59933  75420.00000  0    -200561.490   -5050743.930    4920669.559
10 0 59933  75600.00000  0    -579080.246   -5861533.209    3888304.979
10 0 59933  75780.00000  0    -954858.701   -6448901.071    2713261.098
10 0 59933  75960.00000  0   -1308083.363   -6791894.499    1438698.493
10 0 59933  76140.00000  0   -1619362.735   -6879060.773     111401.664
10 0 59933  76320.00000  0   -1870700.185   -6708838.391   -1219984.440
10 0 59933  76500.00000  0   -2046408.699   -6289530.735   -2506784.367
10 0 59933  76680.00000  0   -2133925.586   -5638875.457   -3702104.922
10 0 59933  76860.00000  0   -2124487.107   -4783234.802   -4762554.546
10 0 59933  77040.00000  0   -2013629.334   -3756458.024   -5649793.201
10 0 59933  77220.00000  0   -1801497.827   -2598488.702   -6331861.797
10 0 59933  77400.00000  0   -1492956.992   -1353782.907   -6784261.344
10 0 59933  77580.00000  0   -1097497.940     -69604.491   -6990756.163
10 0 59933  77760.00000  0    -628953.445    1205735.811   -6943895.669
10 0 59933  77940.00000  0    -105026.737    2424644.614   -6645258.101
10 0 59933  78120.00000  0     453351.495    3541971.110   -6105416.915
10 0 59933  78300.00000  0    1022827.354    4516653.510   -5343624.660
10 0 59933  78480.00000  0    1578565.243    5313233.382   -4387205.632
10 0 59933  78660.00000  0    2095297.321    5903189.583   -3270661.207
10 0 59933  78840.00000  0    2548442.329    6266031.770   -2034493.549
10 0 59933  79020.00000  0    2915245.617    6390099.850    -723774.563
10 0 59933  79200.00000  0    3175883.253    6273015.819     613501.953
10 0 59933  79380.00000  0    3314467.840    5921748.329    1928215.591
10 0 59933  79560.00000  0    3319901.311    5352283.923    3171980.473
10 0 59933  79740.00000  0    3186526.764    4588914.999    4298991.110
10 0 59933  79920.00000  0    2914542.905    3663178.010    5267765.991
10 0 59933  80100.00000  0    2510149.042    2612497.560    6042707.308
10 0 59933  80280.00000  0    1985427.889    1478617.424    6595405.603
10 0 59933  80460.00000  0    1357975.153     305895.236    6905662.285
10 0 59933  80640.00000  0     650287.137    -860464.164    6962195.746
10 0 59933  80820.00000  0    -111064.273   -1976168.182    6763029.104
10 0 59933  81000.00000  0    -896444.672   -2999534.586    6315546.592
10 0 59933  81180.00000  0   -1674318.446   -3893062.342    5636215.144
10 0 59933  81360.00000  0   -2412514.185   -4624821.320    4749992.610
10 0 59933  81540.00000  0   -3079564.549   -5169625.077    3689435.379
10 0 59933  81720.00000  0   -3646060.921   -5509934.095    2493507.197
10 0 59933  81900.00000  0   -4085950.106   -5636440.758    1206132.449
10 0 59933  82080.00000  0   -4377716.621   -5548313.110    -125446.752
10 0 59933  82260.00000  0   -4505392.255   -5253083.768   -1452446.780
10 0 59933  82440.00000  0   -4459338.234   -4766188.261   -2726376.777
10 0 59933  82620.00000  0   -4236757.457   -4110176.111   -3900843.856
10 0 59933  82800.00000  0   -3841916.357   -3313647.769   -4933244.534
10 0 59933  82980.00000  0   -3286076.450   -2409982.340   -5786278.787
10 0 59933  83160.00000  0   -2587147.541   -1435921.216   -6429238.246
10 0 59933  83340.00000  0   -1769084.779    -430074.265   -6839037.395
10 0 59933  83520.00000  0    -861056.201     568590.450   -7000965.778
10 0 59933  83700.00000  0     103581.182    1522216.141   -6909158.851
99
